CCSDS_OMM_VERS = 2.0
CREATION_DATE  = 
ORIGINATOR     = 

OBJECT_NAME    = 2026-027A
OBJECT_ID      = 2026-027A
CENTER_NAME    = EARTH
REF_FRAME      = TEME
TIME_SYSTEM    = UTC
MEAN_ELEMENT_THEORY = SGP/SGP4

EPOCH          = 2026-02-23T03:08:54.093696
MEAN_MOTION    = 15.17396486
ECCENTRICITY   = .0009297
INCLINATION    = 97.4883
RA_OF_ASC_NODE = 183.3028
ARG_OF_PERICENTER = 247.8703
MEAN_ANOMALY   = 112.1544

EPHEMERIS_TYPE = 0
CLASSIFICATION_TYPE = U
NORAD_CAT_ID   = 67746
ELEMENT_SET_NO = 999
REV_AT_EPOCH   = 165
BSTAR          = .48741E-3
MEAN_MOTION_DOT = .9688E-4
MEAN_MOTION_DDOT = 0

CCSDS_OMM_VERS = 2.0
CREATION_DATE  = 
ORIGINATOR     = 

OBJECT_NAME    = 2026-027B
OBJECT_ID      = 2026-027B
CENTER_NAME    = EARTH
REF_FRAME      = TEME
TIME_SYSTEM    = UTC
MEAN_ELEMENT_THEORY = SGP/SGP4

EPOCH          = 2026-02-23T03:07:51.481344
MEAN_MOTION    = 15.17497217
ECCENTRICITY   = .0009433
INCLINATION    = 97.4877
RA_OF_ASC_NODE = 183.3028
ARG_OF_PERICENTER = 250.5522
MEAN_ANOMALY   = 109.4693

EPHEMERIS_TYPE = 0
CLASSIFICATION_TYPE = U
NORAD_CAT_ID   = 67747
ELEMENT_SET_NO = 999
REV_AT_EPOCH   = 165
BSTAR          = .47372E-3
MEAN_MOTION_DOT = .9442E-4
MEAN_MOTION_DDOT = 0

CCSDS_OMM_VERS = 2.0
CREATION_DATE  = 
ORIGINATOR     = 

OBJECT_NAME    = 2026-027C
OBJECT_ID      = 2026-027C
CENTER_NAME    = EARTH
REF_FRAME      = TEME
TIME_SYSTEM    = UTC
MEAN_ELEMENT_THEORY = SGP/SGP4

EPOCH          = 2026-02-23T03:06:33.377472
MEAN_MOTION    = 15.17595581
ECCENTRICITY   = .000982
INCLINATION    = 97.4888
RA_OF_ASC_NODE = 183.3058
ARG_OF_PERICENTER = 253.6921
MEAN_ANOMALY   = 106.3233

EPHEMERIS_TYPE = 0
CLASSIFICATION_TYPE = U
NORAD_CAT_ID   = 67748
ELEMENT_SET_NO = 999
REV_AT_EPOCH   = 165
BSTAR          = .33137E-3
MEAN_MOTION_DOT = .6601E-4
MEAN_MOTION_DDOT = 0

CCSDS_OMM_VERS = 2.0
CREATION_DATE  = 
ORIGINATOR     = 

OBJECT_NAME    = 2026-027D
OBJECT_ID      = 2026-027D
CENTER_NAME    = EARTH
REF_FRAME      = TEME
TIME_SYSTEM    = UTC
MEAN_ELEMENT_THEORY = SGP/SGP4

EPOCH          = 2026-02-23T03:04:49.758816
MEAN_MOTION    = 15.17806767
ECCENTRICITY   = .0009622
INCLINATION    = 97.4884
RA_OF_ASC_NODE = 183.3068
ARG_OF_PERICENTER = 258.3148
MEAN_ANOMALY   = 101.7006

EPHEMERIS_TYPE = 0
CLASSIFICATION_TYPE = U
NORAD_CAT_ID   = 67749
ELEMENT_SET_NO = 999
REV_AT_EPOCH   = 160
BSTAR          = .56754E-3
MEAN_MOTION_DOT = .1143E-3
MEAN_MOTION_DDOT = 0

CCSDS_OMM_VERS = 2.0
CREATION_DATE  = 
ORIGINATOR     = 

OBJECT_NAME    = 2026-027E
OBJECT_ID      = 2026-027E
CENTER_NAME    = EARTH
REF_FRAME      = TEME
TIME_SYSTEM    = UTC
MEAN_ELEMENT_THEORY = SGP/SGP4

EPOCH          = 2026-02-23T03:04:44.603328
MEAN_MOTION    = 15.17801962
ECCENTRICITY   = .0008769
INCLINATION    = 97.4894
RA_OF_ASC_NODE = 183.3085
ARG_OF_PERICENTER = 259.9221
MEAN_ANOMALY   = 100.1024

EPHEMERIS_TYPE = 0
CLASSIFICATION_TYPE = U
NORAD_CAT_ID   = 67750
ELEMENT_SET_NO = 999
REV_AT_EPOCH   = 165
BSTAR          = .49062E-3
MEAN_MOTION_DOT = .9866E-4
MEAN_MOTION_DDOT = 0

CCSDS_OMM_VERS = 2.0
CREATION_DATE  = 
ORIGINATOR     = 

OBJECT_NAME    = 2026-027F
OBJECT_ID      = 2026-027F
CENTER_NAME    = EARTH
REF_FRAME      = TEME
TIME_SYSTEM    = UTC
MEAN_ELEMENT_THEORY = SGP/SGP4

EPOCH          = 2026-02-23T03:03:52.983648
MEAN_MOTION    = 15.17946612
ECCENTRICITY   = .0009932
INCLINATION    = 97.4895
RA_OF_ASC_NODE = 183.3097
ARG_OF_PERICENTER = 259.3166
MEAN_ANOMALY   = 100.6949

EPHEMERIS_TYPE = 0
CLASSIFICATION_TYPE = U
NORAD_CAT_ID   = 67751
ELEMENT_SET_NO = 999
REV_AT_EPOCH   = 165
BSTAR          = .80215E-3
MEAN_MOTION_DOT = .1626E-3
MEAN_MOTION_DDOT = 0

CCSDS_OMM_VERS = 2.0
CREATION_DATE  = 
ORIGINATOR     = 

OBJECT_NAME    = 2026-027G
OBJECT_ID      = 2026-027G
CENTER_NAME    = EARTH
REF_FRAME      = TEME
TIME_SYSTEM    = UTC
MEAN_ELEMENT_THEORY = SGP/SGP4

EPOCH          = 2026-02-23T03:03:51.403392
MEAN_MOTION    = 15.17894667
ECCENTRICITY   = .0009104
INCLINATION    = 97.4889
RA_OF_ASC_NODE = 183.3086
ARG_OF_PERICENTER = 262.0674
MEAN_ANOMALY   = 97.9526

EPHEMERIS_TYPE = 0
CLASSIFICATION_TYPE = U
NORAD_CAT_ID   = 67752
ELEMENT_SET_NO = 999
REV_AT_EPOCH   = 165
BSTAR          = .5276E-3
MEAN_MOTION_DOT = .10645E-3
MEAN_MOTION_DDOT = 0

CCSDS_OMM_VERS = 2.0
CREATION_DATE  = 
ORIGINATOR     = 

OBJECT_NAME    = 2026-027H
OBJECT_ID      = 2026-027H
CENTER_NAME    = EARTH
REF_FRAME      = TEME
TIME_SYSTEM    = UTC
MEAN_ELEMENT_THEORY = SGP/SGP4

EPOCH          = 2026-02-23T03:49:00.749280
MEAN_MOTION    = 15.63308372
ECCENTRICITY   = .0254946
INCLINATION    = 97.5133
RA_OF_ASC_NODE = 184.1129
ARG_OF_PERICENTER = 298.8753
MEAN_ANOMALY   = 58.7137

EPHEMERIS_TYPE = 0
CLASSIFICATION_TYPE = U
NORAD_CAT_ID   = 67753
ELEMENT_SET_NO = 999
REV_AT_EPOCH   = 170
BSTAR          = .73031E-3
MEAN_MOTION_DOT = .410489E-2
MEAN_MOTION_DDOT = .23511E-5

CCSDS_OMM_VERS = 2.0
CREATION_DATE  = 
ORIGINATOR     = 

OBJECT_NAME    = 2026-027J
OBJECT_ID      = 2026-027J
CENTER_NAME    = EARTH
REF_FRAME      = TEME
TIME_SYSTEM    = UTC
MEAN_ELEMENT_THEORY = SGP/SGP4

EPOCH          = 2026-02-23T04:35:28.787424
MEAN_MOTION    = 15.72813769
ECCENTRICITY   = .0221334
INCLINATION    = 97.5088
RA_OF_ASC_NODE = 184.2230
ARG_OF_PERICENTER = 297.7612
MEAN_ANOMALY   = 60.1363

EPHEMERIS_TYPE = 0
CLASSIFICATION_TYPE = U
NORAD_CAT_ID   = 67754
ELEMENT_SET_NO = 999
REV_AT_EPOCH   = 165
BSTAR          = .1436E-2
MEAN_MOTION_DOT = .974211E-2
MEAN_MOTION_DDOT = .23991E-5

CCSDS_OMM_VERS = 2.0
CREATION_DATE  = 
ORIGINATOR     = 

OBJECT_NAME    = 2026-028A
OBJECT_ID      = 2026-028A
CENTER_NAME    = EARTH
REF_FRAME      = TEME
TIME_SYSTEM    = UTC
MEAN_ELEMENT_THEORY = SGP/SGP4

EPOCH          = 2026-02-22T06:35:38.328288
MEAN_MOTION    = 0.99527629
ECCENTRICITY   = .0042026
INCLINATION    = 0.5067
RA_OF_ASC_NODE = 288.6707
ARG_OF_PERICENTER = 230.1678
MEAN_ANOMALY   = 201.3169

EPHEMERIS_TYPE = 0
CLASSIFICATION_TYPE = U
NORAD_CAT_ID   = 67756
ELEMENT_SET_NO = 999
REV_AT_EPOCH   = 10
BSTAR          = 0
MEAN_MOTION_DOT = -.223E-5
MEAN_MOTION_DDOT = 0

CCSDS_OMM_VERS = 2.0
CREATION_DATE  = 
ORIGINATOR     = 

OBJECT_NAME    = KUIPER-00159
OBJECT_ID      = 2026-030A
CENTER_NAME    = EARTH
REF_FRAME      = TEME
TIME_SYSTEM    = UTC
MEAN_ELEMENT_THEORY = SGP/SGP4

EPOCH          = 2026-02-23T04:22:56.448192
MEAN_MOTION    = 15.35054106
ECCENTRICITY   = .0003882
INCLINATION    = 51.8849
RA_OF_ASC_NODE = 289.0885
ARG_OF_PERICENTER = 10.9724
MEAN_ANOMALY   = 349.1346

EPHEMERIS_TYPE = 0
CLASSIFICATION_TYPE = U
NORAD_CAT_ID   = 67764
ELEMENT_SET_NO = 999
REV_AT_EPOCH   = 286
BSTAR          = .10992E-2
MEAN_MOTION_DOT = .37771E-3
MEAN_MOTION_DDOT = 0

CCSDS_OMM_VERS = 2.0
CREATION_DATE  = 
ORIGINATOR     = 

OBJECT_NAME    = KUIPER-00160
OBJECT_ID      = 2026-030B
CENTER_NAME    = EARTH
REF_FRAME      = TEME
TIME_SYSTEM    = UTC
MEAN_ELEMENT_THEORY = SGP/SGP4

EPOCH          = 2026-02-23T02:50:01.076928
MEAN_MOTION    = 15.34979958
ECCENTRICITY   = .0004159
INCLINATION    = 51.8816
RA_OF_ASC_NODE = 289.4019
ARG_OF_PERICENTER = 20.5029
MEAN_ANOMALY   = 339.6123

EPHEMERIS_TYPE = 0
CLASSIFICATION_TYPE = U
NORAD_CAT_ID   = 67765
ELEMENT_SET_NO = 999
REV_AT_EPOCH   = 285
BSTAR          = .92599E-3
MEAN_MOTION_DOT = .31659E-3
MEAN_MOTION_DDOT = 0

