2026-027A               
1 67746U 26027A   26054.13118164  .00009688  00000+0  48741-3 0  9996
2 67746  97.4883 183.3028 0009297 247.8703 112.1544 15.17396486  1654
2026-027B               
1 67747U 26027B   26054.13045696  .00009442  00000+0  47372-3 0  9993
2 67747  97.4877 183.3028 0009433 250.5522 109.4693 15.17497217  1658
2026-027C               
1 67748U 26027C   26054.12955298  .00006601  00000+0  33137-3 0  9999
2 67748  97.4888 183.3058 0009820 253.6921 106.3233 15.17595581  1650
2026-027D               
1 67749U 26027D   26054.12835369  .00011430  00000+0  56754-3 0  9992
2 67749  97.4884 183.3068 0009622 258.3148 101.7006 15.17806767  1604
2026-027E               
1 67750U 26027E   26054.12829402  .00009866  00000+0  49062-3 0  9999
2 67750  97.4894 183.3085 0008769 259.9221 100.1024 15.17801962  1656
2026-027F               
1 67751U 26027F   26054.12769657  .00016260  00000+0  80215-3 0  9996
2 67751  97.4895 183.3097 0009932 259.3166 100.6949 15.17946612  1659
2026-027G               
1 67752U 26027G   26054.12767828  .00010645  00000+0  52760-3 0  9990
2 67752  97.4889 183.3086 0009104 262.0674  97.9526 15.17894667  1658
2026-027H               
1 67753U 26027H   26054.15903645  .00410489  23511-5  73031-3 0  9995
2 67753  97.5133 184.1129 0254946 298.8753  58.7137 15.63308372  1703
2026-027J               
1 67754U 26027J   26054.19130541  .00974211  23991-5  14360-2 0  9996
2 67754  97.5088 184.2230 0221334 297.7612  60.1363 15.72813769  1657
2026-028A               
1 67756U 26028A   26053.27474917 -.00000223  00000+0  00000+0 0  9992
2 67756   0.5067 288.6707 0042026 230.1678 201.3169  0.99527629   102
KUIPER-00159            
1 67764U 26030A   26054.18259778  .00037771  00000+0  10992-2 0  9992
2 67764  51.8849 289.0885 0003882  10.9724 349.1346 15.35054106  2867
KUIPER-00160            
1 67765U 26030B   26054.11806802  .00031659  00000+0  92599-3 0  9995
2 67765  51.8816 289.4019 0004159  20.5029 339.6123 15.34979958  2854
